{"type":"Feature","properties":{"MUN":"ALLENHURST BORO","COUNTY":"MONMOUTH","MUN_LABEL":"Allenhurst Borough","MUN_TYPE":"Borough","NAME":"Allenhurst Borough","GNIS_NAME":"Borough of Allenhurst"},"geometry":{"type":"Polygon","coordinates":[[[-73.9940784,40.2375433],[-73.9940502,40.2374817],[-73.994018,40.237442],[-73.9938762,40.2373891],[-73.9935453,40.2373282],[-73.9933585,40.2372862],[-73.9932595,40.2372565],[-73.9931522,40.2372399],[-73.9929822,40.237217],[-73.9927469,40.2371769],[-73.9927398,40.2371583],[-73.9927474,40.2371192],[-73.992762,40.23711],[-73.9928228,40.2371047],[-73.9929078,40.237105],[-73.9929614,40.2370848],[-73.9929932,40.2370533],[-73.9930375,40.236966],[-73.993075,40.2368229],[-73.9930824,40.236808],[-73.9931165,40.2368007],[-73.9931894,40.2367973],[-73.993313,40.2368258],[-73.993495,40.2368508],[-73.9936043,40.2368512],[-73.9937428,40.2368314],[-73.9938182,40.2368168],[-73.9938792,40.2367892],[-73.993945,40.2367448],[-73.9940342,40.2366782],[-73.9940979,40.2365984],[-73.9941864,40.2364648],[-73.994233,40.2364036],[-73.9943237,40.2362811],[-73.9944043,40.2362275],[-73.9945169,40.236107],[-73.9945773,40.2359863],[-73.994597,40.2359491],[-73.9946385,40.2359121],[-73.9946852,40.2358397],[-73.9947273,40.2357301],[-73.9947698,40.2355702],[-73.9947879,40.235427],[-73.9947692,40.2353264],[-73.9947404,40.2352834],[-73.9947041,40.2352554],[-73.9946812,40.2352329],[-73.9946814,40.2352162],[-73.994718,40.2351865],[-73.9947936,40.2351497],[-73.9948788,40.2351184],[-73.9949374,40.2350758],[-73.9949888,40.2350221],[-73.9950379,40.234946],[-73.9953664,40.2343797],[-73.9955587,40.2339897],[-73.9956293,40.2338039],[-73.9956786,40.2336999],[-73.9957132,40.2336144],[-73.9957236,40.2335344],[-73.9957244,40.2334265],[-73.9957251,40.233326],[-73.9957261,40.2331901],[-73.9964371,40.233302],[-73.9968616,40.2333688],[-73.9983688,40.2336059],[-73.99845,40.2336189],[-74.0002508,40.2339095],[-74.0006856,40.2339781],[-74.0008017,40.2339964],[-74.0008667,40.2340067],[-74.001864,40.2339337],[-74.0088944,40.2334189],[-74.0088672,40.2336347],[-74.0088404,40.2340533],[-74.0088862,40.2342993],[-74.0089911,40.2345728],[-74.0090725,40.2348099],[-74.0091303,40.2350377],[-74.0091526,40.235229],[-74.0091161,40.2353472],[-74.0090962,40.2353774],[-74.00896,40.2355832],[-74.0087801,40.2358283],[-74.0085995,40.2361552],[-74.008478,40.236537],[-74.0084161,40.2368827],[-74.0083943,40.2374288],[-74.0083417,40.2381387],[-74.0082892,40.2388212],[-74.0082396,40.2391123],[-74.0081535,40.2395216],[-74.0080964,40.2398395],[-73.9940784,40.2375433]]]}}
