{"type":"FeatureCollection","name":"allenhurst_road_centerlines","metadata":{"source":"NJOGIS NG911 Road Centerlines (Tran_road)","url":"https://services2.arcgis.com/XVOqAjTOJ5P6ngMu/arcgis/rest/services/Tran_road/FeatureServer/0","query_url":"https://services2.arcgis.com/XVOqAjTOJ5P6ngMu/arcgis/rest/services/Tran_road/FeatureServer/0/query","retrieved_at_utc":"2026-09-04T20:04:51.810464+00:00","source_last_edit_date":1785341586960,"out_sr":4326,"query_envelope_wgs84":[-74.0091526,40.2331901,-73.9927398,40.2398395],"spatial_relationship":"esriSpatialRelIntersects","boundary_file":"allenhurst_boundary.geojson","boundary_sha256":"b4b138abeb68246d72891558d3ab55b32c76380ffd6a606c0af531e231ee2a15","fields":["OBJECTID","PRIMENAME","ELEVTYP_F","ELEVTYP_T"],"feature_count":104,"complete_objectid_inventory_verified":true,"municipal_clipping":"Envelope selection only; clip against the actual municipal boundary in the application."},"features":[{"type":"Feature","id":2765,"properties":{"OBJECTID":2765,"PRIMENAME":"Neptune Avenue","ELEVTYP_F":0,"ELEVTYP_T":0},"geometry":{"type":"LineString","coordinates":[[-74.0051435985277,40.2398768753613],[-74.0032998448851,40.2395735340886]]}},{"type":"Feature","id":3335,"properties":{"OBJECTID":3335,"PRIMENAME":"Neptune Avenue","ELEVTYP_F":0,"ELEVTYP_T":0},"geometry":{"type":"LineString","coordinates":[[-74.0057206181261,40.2399718000077],[-74.0051435985277,40.2398768753613]]}},{"type":"Feature","id":4125,"properties":{"OBJECTID":4125,"PRIMENAME":"Spier Avenue","ELEVTYP_F":0,"ELEVTYP_T":0},"geometry":{"type":"LineString","coordinates":[[-74.0058199061954,40.2379978208801],[-74.0056500695366,40.237979031788],[-74.0039977949305,40.2377098467303],[-74.0038135339728,40.2376798752877]]}},{"type":"Feature","id":8789,"properties":{"OBJECTID":8789,"PRIMENAME":"Norwood Avenue","ELEVTYP_F":0,"ELEVTYP_T":0},"geometry":{"type":"LineString","coordinates":[[-74.0008016786728,40.2339964004417],[-74.000791989464,40.2340818455446]]}},{"type":"Feature","id":16736,"properties":{"OBJECTID":16736,"PRIMENAME":"Lake Drive","ELEVTYP_F":0,"ELEVTYP_T":0},"geometry":{"type":"LineString","coordinates":[[-74.0080670601187,40.2357064162035],[-74.0080163048036,40.2358396461051],[-74.0079758203271,40.2359737284445],[-74.0079717505687,40.2359872058482],[-74.0079022171471,40.2362157536869]]}},{"type":"Feature","id":18195,"properties":{"OBJECTID":18195,"PRIMENAME":"Corlies Avenue","ELEVTYP_F":0,"ELEVTYP_T":0},"geometry":{"type":"LineString","coordinates":[[-73.9964891835558,40.235580033634],[-73.9963643140972,40.2355607681524],[-73.9955082319169,40.2354352091271]]}},{"type":"Feature","id":30450,"properties":{"OBJECTID":30450,"PRIMENAME":"Neptune Avenue","ELEVTYP_F":0,"ELEVTYP_T":0},"geometry":{"type":"LineString","coordinates":[[-73.9953550459972,40.2382769042283],[-73.9951173288261,40.2382388617533]]}},{"type":"Feature","id":42732,"properties":{"OBJECTID":42732,"PRIMENAME":"Lake Drive","ELEVTYP_F":0,"ELEVTYP_T":0},"geometry":{"type":"LineString","coordinates":[[-74.0082051864953,40.2353203095809],[-74.00812622498,40.235302432623],[-74.0080814180596,40.2352920574377],[-74.0080363905564,40.2352822847449],[-74.007991144611,40.2352731433749],[-74.0079834194713,40.2352714352924],[-74.0079759493889,40.2352692347277],[-74.0079687688411,40.2352664868867],[-74.0079619148464,40.2352632729869],[-74.0079554966886,40.2352595943936],[-74.0079495425715,40.2352554512268],[-74.0079440940057,40.2352509535445],[-74.007939186448,40.2352460735769],[-74.0079245703678,40.2352215790181],[-74.0079108505835,40.2351968135645],[-74.0078979577597,40.2351717769215],[-74.0078859624054,40.2351464693894],[-74.0078748643175,40.2351209188881],[-74.0078700773634,40.2351091214001],[-74.007865972994,40.2350971899129],[-74.0078625864701,40.2350851236757],[-74.0078599163881,40.235072954206],[-74.007857927369,40.2350606984662],[-74.0078566555749,40.2350483935373],[-74.0078629194679,40.2350193204929],[-74.0078701495054,40.2349903902591],[-74.0078783809603,40.2349616002835],[-74.0078875795434,40.2349329792416],[-74.0078930109161,40.2349198796036],[-74.0078992635003,40.2349069761999],[-74.0079062712911,40.2348942957698],[-74.0079140256646,40.2348818932172],[-74.0079200037424,40.2348775260766],[-74.0079265863772,40.2348737379335],[-74.0079337014872,40.234870583422],[-74.0079412773813,40.234868063138],[-74.0079491712861,40.2348662566339],[-74.0079573101269,40.2348651933209],[-74.0079802617508,40.2348664716693],[-74.0080030622808,40.2348686545421],[-74.0080257142573,40.2348717158309],[-74.0080838037652,40.2348831085057],[-74.0081416693683,40.2348950766272],[-74.0081993239949,40.2349076202508],[-74.0082567923244,40.2349207394817],[-74.0082641588134,40.2349224730423],[-74.0082712698521,40.2349247540238],[-74.0082780562953,40.2349275560132],[-74.0082844431417,40.2349308498705],[-74.0082903622128,40.2349346380082],[-74.0082957765421,40.2349388320039],[-74.0083006510311,40.2349434100924],[-74.0083026101658,40.23494989692],[-74.0083037449171,40.2349564631067],[-74.008304054116,40.2349631077469],[-74.0083035407316,40.2349697452899],[-74.0083021676732,40.2349763044252],[-74.0083000080868,40.2349827458342],[-74.0082970613509,40.2349889929574],[-74.0082875577085,40.2350203309516],[-74.0082773015822,40.2350515549657],[-74.0082663309607,40.2350826120215],[-74.0082546456474,40.235113529138],[-74.008242208245,40.2351442773347],[-74.0082328688413,40.2351720745952],[-74.0082243275487,40.2352000121474],[-74.0082166348934,40.2352280911071],[-74.0082098049848,40.2352563106335],[-74.0082037606608,40.2352846154583],[-74.0082018553261,40.2352905103394],[-74.0082008095971,40.2352964935359],[-74.0082006223642,40.2353025560364],[-74.0082012955194,40.2353085987756],[-74.0082028285133,40.235314535287],[-74.0082051864953,40.2353203095809]]}},{"type":"Feature","id":42867,"properties":{"OBJECTID":42867,"PRIMENAME":"Corlies Avenue","ELEVTYP_F":0,"ELEVTYP_T":0},"geometry":{"type":"LineString","coordinates":[[-74.0040957557555,40.2366999634701],[-74.0058318510054,40.2369360956953],[-74.0061175258446,40.2369801454487],[-74.0061749900267,40.2369890055356]]}},{"type":"Feature","id":43758,"properties":{"OBJECTID":43758,"PRIMENAME":"Main Street","ELEVTYP_F":0,"ELEVTYP_T":0},"geometry":{"type":"LineString","coordinates":[[-74.0054885567489,40.2389087311497],[-74.0054047821553,40.2391438508181]]}},{"type":"Feature","id":46011,"properties":{"OBJECTID":46011,"PRIMENAME":"Corlies Avenue","ELEVTYP_F":0,"ELEVTYP_T":0},"geometry":{"type":"LineString","coordinates":[[-74.0071517168921,40.2371823712361],[-74.0069593470626,40.2371442714662]]}},{"type":"Feature","id":46271,"properties":{"OBJECTID":46271,"PRIMENAME":"South Edgemere Drive","ELEVTYP_F":0,"ELEVTYP_T":0},"geometry":{"type":"LineString","coordinates":[[-74.0091329952082,40.2376616269368],[-74.0091127443438,40.2375344091205],[-74.0091261711949,40.2373962712403],[-74.0091461412657,40.2372152244801],[-74.0091969279704,40.2370724408642],[-74.0092400680082,40.2369814816385]]}},{"type":"Feature","id":48298,"properties":{"OBJECTID":48298,"PRIMENAME":"Allen Avenue","ELEVTYP_F":0,"ELEVTYP_T":0},"geometry":{"type":"LineString","coordinates":[[-73.9966662072429,40.2345641317891],[-73.9980120292255,40.2347624449877],[-73.9981272982514,40.2347817778449]]}},{"type":"Feature","id":48504,"properties":{"OBJECTID":48504,"PRIMENAME":"Main Street","ELEVTYP_F":0,"ELEVTYP_T":0},"geometry":{"type":"LineString","coordinates":[[-74.0058199061954,40.2379978208801],[-74.0055106798231,40.2388467003485],[-74.0054885567489,40.2389087311497]]}},{"type":"Feature","id":49115,"properties":{"OBJECTID":49115,"PRIMENAME":"Euclid Avenue","ELEVTYP_F":0,"ELEVTYP_T":0},"geometry":{"type":"LineString","coordinates":[[-74.0038084129157,40.2330764413058],[-74.0030772707582,40.2331312840968],[-74.0024675167862,40.2331763495085],[-74.0022994622211,40.2331947337381],[-74.0021750679316,40.2331988930354],[-74.0020569752523,40.2331936907465],[-74.0018768071931,40.2331690594787],[-74.0010196614652,40.2330271444694],[-74.0009117586304,40.2330098232219]]}},{"type":"Feature","id":49538,"properties":{"OBJECTID":49538,"PRIMENAME":"Elberon Avenue","ELEVTYP_F":0,"ELEVTYP_T":0},"geometry":{"type":"LineString","coordinates":[[-74.0046422609793,40.2347599913377],[-74.0044921203268,40.2347331869422],[-74.0035729441464,40.234571972524],[-74.0009396250628,40.2341078756671],[-74.000791989464,40.2340818455446]]}},{"type":"Feature","id":51463,"properties":{"OBJECTID":51463,"PRIMENAME":"Lake Drive","ELEVTYP_F":0,"ELEVTYP_T":0},"geometry":{"type":"LineString","coordinates":[[-74.0071619001541,40.2391719168523],[-74.0071842670783,40.2391008557793],[-74.0072606440488,40.2388581449155],[-74.0073051701809,40.2387248339624],[-74.0073309622131,40.2385962744219],[-74.0073316876635,40.2384961854462],[-74.0073200184469,40.2383912953877],[-74.0072279498125,40.238224075503]]}},{"type":"Feature","id":52804,"properties":{"OBJECTID":52804,"PRIMENAME":"Allen Avenue","ELEVTYP_F":0,"ELEVTYP_T":0},"geometry":{"type":"LineString","coordinates":[[-74.0065153026869,40.2360250116048],[-74.0071934333468,40.2361221171964],[-74.0072946726313,40.2361354908207],[-74.0078271376113,40.2362058261128],[-74.0079022171471,40.2362157536869]]}},{"type":"Feature","id":55808,"properties":{"OBJECTID":55808,"PRIMENAME":"Page Avenue","ELEVTYP_F":0,"ELEVTYP_T":0},"geometry":{"type":"LineString","coordinates":[[-74.0043691591093,40.2357295114635],[-74.0046422609793,40.2347599913377]]}},{"type":"Feature","id":56639,"properties":{"OBJECTID":56639,"PRIMENAME":"Neptune Avenue","ELEVTYP_F":0,"ELEVTYP_T":0},"geometry":{"type":"LineString","coordinates":[[-74.0010194141928,40.2392048395024],[-74.0002791281672,40.2390857971675],[-73.9996269899805,40.2389685849093],[-73.9989809105453,40.23886567078],[-73.9978504166258,40.2386796958371],[-73.9977281136335,40.238661238251]]}},{"type":"Feature","id":71122,"properties":{"OBJECTID":71122,"PRIMENAME":"Cedar Avenue","ELEVTYP_F":0,"ELEVTYP_T":0},"geometry":{"type":"LineString","coordinates":[[-73.994967611313,40.2371808243391],[-73.995021455696,40.2371896795702],[-73.997853869103,40.2376547479433],[-73.9979305029588,40.2376676267047]]}},{"type":"Feature","id":75388,"properties":{"OBJECTID":75388,"PRIMENAME":"Allen Avenue","ELEVTYP_F":0,"ELEVTYP_T":0},"geometry":{"type":"LineString","coordinates":[[-74.0006630224423,40.2351959935167],[-74.0009127066168,40.2352325396729],[-74.0021054377422,40.2354045048201],[-74.0034969771472,40.2356058889039],[-74.0043691591093,40.2357295114635]]}},{"type":"Feature","id":80754,"properties":{"OBJECTID":80754,"PRIMENAME":"North Edgemere Drive","ELEVTYP_F":0,"ELEVTYP_T":0},"geometry":{"type":"LineString","coordinates":[[-74.0091969600606,40.2379303385595],[-74.0091484513658,40.2377585448709],[-74.0091329952082,40.2376616269368]]}},{"type":"Feature","id":81111,"properties":{"OBJECTID":81111,"PRIMENAME":"Spier Avenue","ELEVTYP_F":0,"ELEVTYP_T":0},"geometry":{"type":"LineString","coordinates":[[-74.0068158669021,40.2381537164007],[-74.0065882496331,40.238114863265],[-74.0061098746372,40.2380332038492],[-74.0060539905247,40.238023664165],[-74.0058199061954,40.2379978208801]]}},{"type":"Feature","id":82230,"properties":{"OBJECTID":82230,"PRIMENAME":"Page Avenue","ELEVTYP_F":0,"ELEVTYP_T":0},"geometry":{"type":"LineString","coordinates":[[-74.0049187399048,40.2337100398704],[-74.0049488054435,40.2335944929727],[-74.0050771214666,40.2330517038006],[-74.0050940842022,40.2329799606584]]}},{"type":"Feature","id":82803,"properties":{"OBJECTID":82803,"PRIMENAME":"Elberon Avenue","ELEVTYP_F":0,"ELEVTYP_T":0},"geometry":{"type":"LineString","coordinates":[[-73.9964370689336,40.2333019713469],[-73.9968616041336,40.233368769319]]}},{"type":"Feature","id":83200,"properties":{"OBJECTID":83200,"PRIMENAME":"Page Avenue","ELEVTYP_F":0,"ELEVTYP_T":0},"geometry":{"type":"LineString","coordinates":[[-74.0046422609793,40.2347599913377],[-74.0046858343684,40.2346053458062],[-74.0048264970778,40.2340645318768]]}},{"type":"Feature","id":84894,"properties":{"OBJECTID":84894,"PRIMENAME":"Main Street","ELEVTYP_F":0,"ELEVTYP_T":0},"geometry":{"type":"LineString","coordinates":[[-74.0074120969527,40.2335274464577],[-74.0073706369574,40.2336357923991],[-74.0072836245295,40.233878925735]]}},{"type":"Feature","id":94791,"properties":{"OBJECTID":94791,"PRIMENAME":"Spier Avenue","ELEVTYP_F":0,"ELEVTYP_T":0},"geometry":{"type":"LineString","coordinates":[[-74.000778972965,40.2371761970612],[-74.0006312789255,40.2371425072081],[-73.9982958045817,40.2367558971961],[-73.9981896478719,40.2367390196068]]}},{"type":"Feature","id":99185,"properties":{"OBJECTID":99185,"PRIMENAME":"Monmouth Terrace","ELEVTYP_F":0,"ELEVTYP_T":0},"geometry":{"type":"LineString","coordinates":[[-73.9953550459972,40.2382769042283],[-73.9953278928597,40.2383589230672],[-73.9950317323968,40.2392539516803]]}},{"type":"Feature","id":102065,"properties":{"OBJECTID":102065,"PRIMENAME":"Spier Avenue","ELEVTYP_F":0,"ELEVTYP_T":0},"geometry":{"type":"LineString","coordinates":[[-74.0072279498125,40.238224075503],[-74.0068158669021,40.2381537164007]]}},{"type":"Feature","id":102587,"properties":{"OBJECTID":102587,"PRIMENAME":"Cedar Avenue","ELEVTYP_F":0,"ELEVTYP_T":0},"geometry":{"type":"LineString","coordinates":[[-74.0054885567489,40.2389087311497],[-74.0061028109844,40.2390053459177],[-74.0062758516494,40.2390325620484],[-74.0071619001541,40.2391719168523]]}},{"type":"Feature","id":115650,"properties":{"OBJECTID":115650,"PRIMENAME":"Norwood Avenue","ELEVTYP_F":0,"ELEVTYP_T":0},"geometry":{"type":"LineString","coordinates":[[-74.0010194141928,40.2392048395024],[-74.0010021756787,40.2393181438557],[-74.0009338034391,40.2397360584827],[-74.0008679835376,40.2402208036259]]}},{"type":"Feature","id":119475,"properties":{"OBJECTID":119475,"PRIMENAME":"Page Avenue","ELEVTYP_F":0,"ELEVTYP_T":0},"geometry":{"type":"LineString","coordinates":[[-74.0035687257576,40.2385929352785],[-74.0037858617121,40.2377756759246],[-74.0038135339728,40.2376798752877]]}},{"type":"Feature","id":120944,"properties":{"OBJECTID":120944,"PRIMENAME":"Norwood Avenue","ELEVTYP_F":0,"ELEVTYP_T":0},"geometry":{"type":"LineString","coordinates":[[-74.0010539796539,40.238686133091],[-74.0010574956397,40.2387750450004],[-74.0010567345521,40.2388787292258],[-74.0010511762065,40.2389966404214],[-74.0010194141928,40.2392048395024]]}},{"type":"Feature","id":131069,"properties":{"OBJECTID":131069,"PRIMENAME":"Ocean Place","ELEVTYP_F":0,"ELEVTYP_T":0},"geometry":{"type":"LineString","coordinates":[[-73.9971282509281,40.2323891907861],[-73.997098454871,40.2325001064904],[-73.9970389675397,40.2327215537391],[-73.9969111171482,40.233188073687],[-73.9968616041336,40.233368769319]]}},{"type":"Feature","id":147002,"properties":{"OBJECTID":147002,"PRIMENAME":"Main Street","ELEVTYP_F":0,"ELEVTYP_T":0},"geometry":{"type":"LineString","coordinates":[[-74.0068560087961,40.235074605649],[-74.0067612774223,40.2353394477577],[-74.0065153026869,40.2360250116048]]}},{"type":"Feature","id":149721,"properties":{"OBJECTID":149721,"PRIMENAME":"Norwood Avenue South","ELEVTYP_F":0,"ELEVTYP_T":0},"geometry":{"type":"LineString","coordinates":[[-74.0009117586304,40.2330098232219],[-74.0008833464415,40.2332695101069],[-74.0008016786728,40.2339964004417]]}},{"type":"Feature","id":152331,"properties":{"OBJECTID":152331,"PRIMENAME":"Richmond Avenue","ELEVTYP_F":0,"ELEVTYP_T":0},"geometry":{"type":"LineString","coordinates":[[-74.00301915072,40.2405717605594],[-74.0032777447756,40.2396517333298],[-74.0032998448851,40.2395735340886]]}},{"type":"Feature","id":154419,"properties":{"OBJECTID":154419,"PRIMENAME":"Hume Street","ELEVTYP_F":0,"ELEVTYP_T":0},"geometry":{"type":"LineString","coordinates":[[-74.0048264970778,40.2340645318768],[-74.0049697113293,40.234053697021],[-74.0061394282042,40.233965350706],[-74.0070602768367,40.2338957908142],[-74.0072836245295,40.233878925735]]}},{"type":"Feature","id":156283,"properties":{"OBJECTID":156283,"PRIMENAME":"Ocean Place","ELEVTYP_F":0,"ELEVTYP_T":0},"geometry":{"type":"LineString","coordinates":[[-73.994967611313,40.2371808243391],[-73.9948254849486,40.2376177410076]]}},{"type":"Feature","id":165349,"properties":{"OBJECTID":165349,"PRIMENAME":"Corlies Avenue","ELEVTYP_F":0,"ELEVTYP_T":0},"geometry":{"type":"LineString","coordinates":[[-74.0083911792291,40.2374712277562],[-74.0082750210023,40.2374405601345],[-74.0080425242118,40.2373791787414],[-74.0080064891806,40.237370410678],[-74.0078659812746,40.2373362220008],[-74.00768057999,40.2372911098403]]}},{"type":"Feature","id":166905,"properties":{"OBJECTID":166905,"PRIMENAME":"Corlies Avenue","ELEVTYP_F":0,"ELEVTYP_T":0},"geometry":{"type":"LineString","coordinates":[[-74.0061749900267,40.2369890055356],[-74.0064840842484,40.2370341657573],[-74.0069593470626,40.2371442714662]]}},{"type":"Feature","id":167619,"properties":{"OBJECTID":167619,"PRIMENAME":"Spier Avenue","ELEVTYP_F":0,"ELEVTYP_T":0},"geometry":{"type":"LineString","coordinates":[[-73.9981896478719,40.2367390196068],[-73.9974323894046,40.236618704702],[-73.9953578636311,40.2362712718909],[-73.9952563666679,40.2362542759289]]}},{"type":"Feature","id":168858,"properties":{"OBJECTID":168858,"PRIMENAME":"Page Avenue","ELEVTYP_F":0,"ELEVTYP_T":0},"geometry":{"type":"LineString","coordinates":[[-74.0034400733214,40.2390769585498],[-74.0034405414354,40.2390753006286],[-74.0035687257576,40.2385929352785]]}},{"type":"Feature","id":185914,"properties":{"OBJECTID":185914,"PRIMENAME":"Allen Avenue","ELEVTYP_F":0,"ELEVTYP_T":0},"geometry":{"type":"LineString","coordinates":[[-73.9959123808999,40.2344530726245],[-73.9966662072429,40.2345641317891]]}},{"type":"Feature","id":186866,"properties":{"OBJECTID":186866,"PRIMENAME":"Richmond Avenue","ELEVTYP_F":0,"ELEVTYP_T":0},"geometry":{"type":"LineString","coordinates":[[-74.0032998448851,40.2395735340886],[-74.0034400733214,40.2390769585498]]}},{"type":"Feature","id":187089,"properties":{"OBJECTID":187089,"PRIMENAME":"Ocean Place","ELEVTYP_F":0,"ELEVTYP_T":0},"geometry":{"type":"LineString","coordinates":[[-73.9966662072429,40.2345641317891],[-73.9966509445226,40.2346516661561],[-73.9965015668039,40.2355089311651],[-73.9964891835558,40.235580033634]]}},{"type":"Feature","id":187492,"properties":{"OBJECTID":187492,"PRIMENAME":"Norwood Avenue","ELEVTYP_F":0,"ELEVTYP_T":0},"geometry":{"type":"LineString","coordinates":[[-74.000791989464,40.2340818455446],[-74.0007638822015,40.2342949196008],[-74.0006630224423,40.2351959935167]]}},{"type":"Feature","id":190470,"properties":{"OBJECTID":190470,"PRIMENAME":"Corlies Avenue","ELEVTYP_F":0,"ELEVTYP_T":0},"geometry":{"type":"LineString","coordinates":[[-73.9983779470057,40.2358716545553],[-73.9964891835558,40.235580033634]]}},{"type":"Feature","id":194151,"properties":{"OBJECTID":194151,"PRIMENAME":"Allen Avenue","ELEVTYP_F":0,"ELEVTYP_T":0},"geometry":{"type":"LineString","coordinates":[[-74.0043691591093,40.2357295114635],[-74.0047457085419,40.2357828162944],[-74.0061248575074,40.2359710146607],[-74.0064044461249,40.2360091653817],[-74.0065153026869,40.2360250116048]]}},{"type":"Feature","id":197149,"properties":{"OBJECTID":197149,"PRIMENAME":"Cedar Avenue","ELEVTYP_F":0,"ELEVTYP_T":0},"geometry":{"type":"LineString","coordinates":[[-74.0035687257576,40.2385929352785],[-74.0038479822433,40.2386385779968],[-74.0053573832519,40.2388881028347],[-74.0054885567489,40.2389087311497]]}},{"type":"Feature","id":200416,"properties":{"OBJECTID":200416,"PRIMENAME":"Ocean Avenue","ELEVTYP_F":0,"ELEVTYP_T":0},"geometry":{"type":"LineString","coordinates":[[-73.9984499819139,40.2336189202677],[-73.9982937403701,40.234179199761],[-73.9982170080263,40.2344543570776],[-73.9981272982514,40.2347817778449]]}},{"type":"Feature","id":203301,"properties":{"OBJECTID":203301,"PRIMENAME":"Norwood Avenue","ELEVTYP_F":0,"ELEVTYP_T":0},"geometry":{"type":"LineString","coordinates":[[-74.0006630224423,40.2351959935167],[-74.0006391012771,40.2354095800273],[-74.0005991257781,40.2357704617903],[-74.0005839658915,40.2359276709551],[-74.0005738122482,40.2360420218332],[-74.0005730769175,40.2361421098485],[-74.0005811731183,40.2362150313077]]}},{"type":"Feature","id":205459,"properties":{"OBJECTID":205459,"PRIMENAME":"Spier Avenue","ELEVTYP_F":0,"ELEVTYP_T":0},"geometry":{"type":"LineString","coordinates":[[-74.0038135339728,40.2376798752877],[-74.0009292408926,40.2372105291926],[-74.000778972965,40.2371761970612]]}},{"type":"Feature","id":208196,"properties":{"OBJECTID":208196,"PRIMENAME":"Spier Avenue","ELEVTYP_F":0,"ELEVTYP_T":0},"geometry":{"type":"LineString","coordinates":[[-74.0068158669021,40.2381537164007],[-74.0068497850978,40.2380556359438],[-74.0071229933182,40.2372656489318],[-74.0071517168921,40.2371823712361]]}},{"type":"Feature","id":208441,"properties":{"OBJECTID":208441,"PRIMENAME":"Atlantic Avenue","ELEVTYP_F":0,"ELEVTYP_T":0},"geometry":{"type":"LineString","coordinates":[[-74.0053189745742,40.2393846719559],[-74.0051435985277,40.2398768753613]]}},{"type":"Feature","id":212945,"properties":{"OBJECTID":212945,"PRIMENAME":"Neptune Avenue","ELEVTYP_F":0,"ELEVTYP_T":0},"geometry":{"type":"LineString","coordinates":[[-74.0032998448851,40.2395735340886],[-74.0027762158031,40.2394873641903],[-74.0010194141928,40.2392048395024]]}},{"type":"Feature","id":213821,"properties":{"OBJECTID":213821,"PRIMENAME":"Main Street","ELEVTYP_F":0,"ELEVTYP_T":0},"geometry":{"type":"LineString","coordinates":[[-74.0076156206037,40.2329955744542],[-74.0074120969527,40.2335274464577]]}},{"type":"Feature","id":216653,"properties":{"OBJECTID":216653,"PRIMENAME":"Ocean Avenue","ELEVTYP_F":0,"ELEVTYP_T":0},"geometry":{"type":"LineString","coordinates":[[-73.9981272982514,40.2347817778449],[-73.9980892340079,40.2349208785275],[-73.9980439888436,40.2351494708149],[-73.9980307145548,40.2352590308025],[-73.9980548703172,40.2353591997416],[-73.9981161716411,40.2354786635404],[-73.9982392694828,40.2356507474339],[-73.9983215294924,40.2357600902108],[-73.9983779470057,40.2358716545553]]}},{"type":"Feature","id":228785,"properties":{"OBJECTID":228785,"PRIMENAME":"Page Avenue","ELEVTYP_F":0,"ELEVTYP_T":0},"geometry":{"type":"LineString","coordinates":[[-74.0038135339728,40.2376798752877],[-74.0040729919432,40.2367807963151],[-74.0040957557555,40.2366999634701]]}},{"type":"Feature","id":230343,"properties":{"OBJECTID":230343,"PRIMENAME":"Norwood Avenue","ELEVTYP_F":0,"ELEVTYP_T":0},"geometry":{"type":"LineString","coordinates":[[-74.0005811731183,40.2362150313077],[-74.0005818125719,40.2362207713194],[-74.0006090614046,40.2363245494283],[-74.0007485881783,40.237011433896],[-74.000778972965,40.2371761970612]]}},{"type":"Feature","id":231431,"properties":{"OBJECTID":231431,"PRIMENAME":"South Edgemere Drive","ELEVTYP_F":0,"ELEVTYP_T":0},"geometry":{"type":"LineString","coordinates":[[-74.0094436784244,40.2392295984358],[-74.0093502408592,40.2392075079807],[-74.0091073086664,40.2391500699459],[-74.0092084374404,40.2389264866647],[-74.0092118535659,40.2389172585029]]}},{"type":"Feature","id":237454,"properties":{"OBJECTID":237454,"PRIMENAME":"Atlantic Avenue","ELEVTYP_F":0,"ELEVTYP_T":0},"geometry":{"type":"LineString","coordinates":[[-74.0051435985277,40.2398768753613],[-74.004964626416,40.2403790100399],[-74.004793223252,40.2408497984448]]}},{"type":"Feature","id":237823,"properties":{"OBJECTID":237823,"PRIMENAME":"Elberon Avenue","ELEVTYP_F":0,"ELEVTYP_T":0},"geometry":{"type":"LineString","coordinates":[[-73.9968616041336,40.233368769319],[-73.99836884005,40.2336058574885],[-73.9984499819139,40.2336189202677]]}},{"type":"Feature","id":240891,"properties":{"OBJECTID":240891,"PRIMENAME":"Ocean Avenue South","ELEVTYP_F":0,"ELEVTYP_T":0},"geometry":{"type":"LineString","coordinates":[[-73.9987193725962,40.2326529653624],[-73.9984499819139,40.2336189202677]]}},{"type":"Feature","id":241659,"properties":{"OBJECTID":241659,"PRIMENAME":"Main Street","ELEVTYP_F":0,"ELEVTYP_T":0},"geometry":{"type":"LineString","coordinates":[[-74.0054047821553,40.2391438508181],[-74.0053189745742,40.2393846719559]]}},{"type":"Feature","id":241724,"properties":{"OBJECTID":241724,"PRIMENAME":"Norwood Avenue","ELEVTYP_F":0,"ELEVTYP_T":0},"geometry":{"type":"LineString","coordinates":[[-74.000778972965,40.2371761970612],[-74.0008831472733,40.2377412594287],[-74.0009642711726,40.2381673132525]]}},{"type":"Feature","id":242422,"properties":{"OBJECTID":242422,"PRIMENAME":"Elberon Avenue","ELEVTYP_F":0,"ELEVTYP_T":0},"geometry":{"type":"LineString","coordinates":[[-73.9984499819139,40.2336189202677],[-74.0002508064796,40.2339094972593],[-74.0006856153844,40.2339780827735],[-74.0008016786728,40.2339964004417]]}},{"type":"Feature","id":248581,"properties":{"OBJECTID":248581,"PRIMENAME":"Main Street","ELEVTYP_F":0,"ELEVTYP_T":0},"geometry":{"type":"LineString","coordinates":[[-74.0061749900267,40.2369890055356],[-74.006116245419,40.2371563781089],[-74.0058469892954,40.2379235134695],[-74.0058199061954,40.2379978208801]]}},{"type":"Feature","id":252162,"properties":{"OBJECTID":252162,"PRIMENAME":"Corlies Avenue","ELEVTYP_F":0,"ELEVTYP_T":0},"geometry":{"type":"LineString","coordinates":[[-73.9983779470057,40.2358716545553],[-73.9999049404506,40.2361242079672],[-74.0005811731183,40.2362150313077]]}},{"type":"Feature","id":253460,"properties":{"OBJECTID":253460,"PRIMENAME":"Cedar Avenue","ELEVTYP_F":0,"ELEVTYP_T":0},"geometry":{"type":"LineString","coordinates":[[-73.9979305029588,40.2376676267047],[-73.9994625591055,40.2379238592101],[-74.0009642711726,40.2381673132525]]}},{"type":"Feature","id":254993,"properties":{"OBJECTID":254993,"PRIMENAME":"Page Avenue","ELEVTYP_F":0,"ELEVTYP_T":0},"geometry":{"type":"LineString","coordinates":[[-74.0048264970778,40.2340645318768],[-74.0049187399048,40.2337100398704]]}},{"type":"Feature","id":260931,"properties":{"OBJECTID":260931,"PRIMENAME":"Main Street","ELEVTYP_F":0,"ELEVTYP_T":0},"geometry":{"type":"LineString","coordinates":[[-74.0065153026869,40.2360250116048],[-74.0064248896307,40.2362769409169],[-74.0061749900267,40.2369890055356]]}},{"type":"Feature","id":261489,"properties":{"OBJECTID":261489,"PRIMENAME":"Monmouth Terrace","ELEVTYP_F":0,"ELEVTYP_T":0},"geometry":{"type":"LineString","coordinates":[[-73.9950317323968,40.2392539516803],[-73.9948507412257,40.2398009744899],[-73.9947225685491,40.2402394612448]]}},{"type":"Feature","id":268182,"properties":{"OBJECTID":268182,"PRIMENAME":"Cedar Avenue","ELEVTYP_F":0,"ELEVTYP_T":0},"geometry":{"type":"LineString","coordinates":[[-74.0071619001541,40.2391719168523],[-74.0075067613278,40.239226148655]]}},{"type":"Feature","id":269209,"properties":{"OBJECTID":269209,"PRIMENAME":"Ocean Place","ELEVTYP_F":0,"ELEVTYP_T":0},"geometry":{"type":"LineString","coordinates":[[-73.9955082319169,40.2354352091271],[-73.9952563666679,40.2362542759289]]}},{"type":"Feature","id":284715,"properties":{"OBJECTID":284715,"PRIMENAME":"Corlies Avenue","ELEVTYP_F":0,"ELEVTYP_T":0},"geometry":{"type":"LineString","coordinates":[[-74.0075338439969,40.2372602843795],[-74.007167066418,40.2371848251692],[-74.0071517168921,40.2371823712361]]}},{"type":"Feature","id":288408,"properties":{"OBJECTID":288408,"PRIMENAME":"Lake Drive","ELEVTYP_F":0,"ELEVTYP_T":0},"geometry":{"type":"LineString","coordinates":[[-74.0075338439969,40.2372602843795],[-74.0075300105894,40.2372699898737],[-74.0075244137264,40.2372841587778],[-74.0075183804793,40.2373017852888],[-74.0075132321399,40.2373195794864],[-74.0075089465693,40.2373375151571],[-74.007505592132,40.2373555646713],[-74.0075030916637,40.23737367276],[-74.0075008701893,40.237389283584],[-74.0074995389138,40.2374049810575],[-74.0074991043209,40.237420681446],[-74.0074995967573,40.2374364136999],[-74.0075009521817,40.2374520955861],[-74.0075032387692,40.2374677255932],[-74.0075063864,40.2374832493828],[-74.0075111932848,40.2375070708774],[-74.0075168954923,40.2375307592799],[-74.0075235670676,40.2375543140049],[-74.0075311353385,40.2375777086233],[-74.0075396355683,40.2376009423845],[-74.0075490331023,40.2376239322794],[-74.007562971195,40.2376580323124],[-74.0075776992527,40.2376919438623],[-74.0075931786969,40.2377256388442],[-74.0076094518361,40.2377591174377],[-74.007625191772,40.2377967674534],[-74.0076403204103,40.2378346058078],[-74.0076547323664,40.2378725789132],[-74.00765889423,40.2378864876122],[-74.0076621960275,40.2379005295537],[-74.007664564889,40.2379147053285],[-74.0076660378454,40.2379289322329],[-74.007666578667,40.237943182192],[-74.0076662249794,40.237957452664],[-74.0076648530409,40.2379688699932],[-74.0076626567188,40.2379801991527],[-74.0076596385524,40.2379914140339],[-74.0076557975552,40.2380024885133],[-74.0076511693876,40.238013366901],[-74.0076457189821,40.2380240229284],[-74.0076395180328,40.2380344559998],[-74.0076325307014,40.2380445840018],[-74.0076231766486,40.2380551675796],[-74.0076131799796,40.2380653926592],[-74.0076025362024,40.2380752303997],[-74.007591296053,40.2380846530963],[-74.0075794454159,40.2380936624899],[-74.0075670608885,40.2381022300851],[-74.0075541405185,40.2381103009325],[-74.0075407266134,40.2381178752121],[-74.0075156968412,40.2381314129182],[-74.0074900979347,40.2381443438491],[-74.007463966724,40.2381566132204],[-74.0074373746885,40.2381682501573],[-74.0074102854104,40.2381792527033],[-74.0073753426547,40.2381914539283],[-74.0073505808051,40.238197528908],[-74.0073017526797,40.2382079174051],[-74.0072638487134,40.2382184352521],[-74.0072279498125,40.238224075503]]}},{"type":"Feature","id":292875,"properties":{"OBJECTID":292875,"PRIMENAME":"Neptune Avenue","ELEVTYP_F":0,"ELEVTYP_T":0},"geometry":{"type":"LineString","coordinates":[[-73.9977281136335,40.238661238251],[-73.9974280110907,40.238615901857],[-73.9959745275487,40.2383760435361],[-73.9953550459972,40.2382769042283]]}},{"type":"Feature","id":292921,"properties":{"OBJECTID":292921,"PRIMENAME":"Cedar Avenue","ELEVTYP_F":0,"ELEVTYP_T":0},"geometry":{"type":"LineString","coordinates":[[-74.0009642711726,40.2381673132525],[-74.0012142590121,40.2382078680372],[-74.0035687257576,40.2385929352785]]}},{"type":"Feature","id":293636,"properties":{"OBJECTID":293636,"PRIMENAME":"Corlies Avenue","ELEVTYP_F":0,"ELEVTYP_T":0},"geometry":{"type":"LineString","coordinates":[[-74.0091329952082,40.2376616269368],[-74.0088821728225,40.2376002109362],[-74.0087828529243,40.2375758902256],[-74.0084646240565,40.2374906176407],[-74.0083911792291,40.2374712277562]]}},{"type":"Feature","id":295165,"properties":{"OBJECTID":295165,"PRIMENAME":"Elberon Avenue","ELEVTYP_F":0,"ELEVTYP_T":0},"geometry":{"type":"LineString","coordinates":[[-74.0068560087961,40.235074605649],[-74.0066974516604,40.2350524075918],[-74.006132105927,40.2349732912009],[-74.0047653931325,40.2347820136145],[-74.0046422609793,40.2347599913377]]}},{"type":"Feature","id":298293,"properties":{"OBJECTID":298293,"PRIMENAME":"Norwood Avenue","ELEVTYP_F":0,"ELEVTYP_T":0},"geometry":{"type":"LineString","coordinates":[[-74.0009642711726,40.2381673132525],[-74.001004456036,40.238378046308],[-74.001035776356,40.2385568971359],[-74.001053537682,40.2386749358925],[-74.0010539796539,40.238686133091]]}},{"type":"Feature","id":304055,"properties":{"OBJECTID":304055,"PRIMENAME":"Lake Drive","ELEVTYP_F":0,"ELEVTYP_T":0},"geometry":{"type":"LineString","coordinates":[[-74.0082051864953,40.2353203095809],[-74.0082109302659,40.2353850469737],[-74.0080670601187,40.2357064162035]]}},{"type":"Feature","id":309352,"properties":{"OBJECTID":309352,"PRIMENAME":"Lake Drive","ELEVTYP_F":0,"ELEVTYP_T":0},"geometry":{"type":"LineString","coordinates":[[-74.0079022171471,40.2362157536869],[-74.0078761999285,40.2363013497026],[-74.0078063005474,40.2365060120086],[-74.0077618137223,40.236639268436],[-74.0077550294854,40.236715502715],[-74.0077791991206,40.2368156417633],[-74.0078280558722,40.2369397696934],[-74.0078646198429,40.237040044288],[-74.0078516377064,40.2371162522127],[-74.007813971221,40.2371732754222],[-74.0077388031674,40.2372396925011],[-74.00768057999,40.2372911098403]]}},{"type":"Feature","id":310154,"properties":{"OBJECTID":310154,"PRIMENAME":"Main Street","ELEVTYP_F":0,"ELEVTYP_T":0},"geometry":{"type":"LineString","coordinates":[[-74.0072836245295,40.233878925735],[-74.0068560087961,40.235074605649]]}},{"type":"Feature","id":324050,"properties":{"OBJECTID":324050,"PRIMENAME":"Ocean Place","ELEVTYP_F":0,"ELEVTYP_T":0},"geometry":{"type":"LineString","coordinates":[[-73.9952563666679,40.2362542759289],[-73.9951693339083,40.236537369695],[-73.9949973039885,40.2370894830338],[-73.994967611313,40.2371808243391]]}},{"type":"Feature","id":325253,"properties":{"OBJECTID":325253,"PRIMENAME":"Allen Avenue","ELEVTYP_F":0,"ELEVTYP_T":0},"geometry":{"type":"LineString","coordinates":[[-73.9981272982514,40.2347817778449],[-73.9989747147855,40.2349239189274],[-74.0005772184413,40.2351834345585],[-74.0006630224423,40.2351959935167]]}},{"type":"Feature","id":333693,"properties":{"OBJECTID":333693,"PRIMENAME":"Corlies Avenue","ELEVTYP_F":0,"ELEVTYP_T":0},"geometry":{"type":"LineString","coordinates":[[-74.00768057999,40.2372911098403],[-74.007663844841,40.2372870306808],[-74.0075338439969,40.2372602843795]]}},{"type":"Feature","id":339039,"properties":{"OBJECTID":339039,"PRIMENAME":"Corlies Avenue","ELEVTYP_F":0,"ELEVTYP_T":0},"geometry":{"type":"LineString","coordinates":[[-74.0115719368661,40.2382437792051],[-74.0111482070639,40.238143546354],[-74.0091987909319,40.2376777460137],[-74.0091329952082,40.2376616269368]]}},{"type":"Feature","id":340394,"properties":{"OBJECTID":340394,"PRIMENAME":"Corlies Avenue","ELEVTYP_F":0,"ELEVTYP_T":0},"geometry":{"type":"LineString","coordinates":[[-74.0005811731183,40.2362150313077],[-74.0014083871087,40.2363261006449],[-74.0037691423549,40.2366555737905],[-74.0040957557555,40.2366999634701]]}},{"type":"Feature","id":347058,"properties":{"OBJECTID":347058,"PRIMENAME":"Page Avenue","ELEVTYP_F":0,"ELEVTYP_T":0},"geometry":{"type":"LineString","coordinates":[[-74.0040957557555,40.2366999634701],[-74.0043691591093,40.2357295114635]]}},{"type":"Feature","id":350167,"properties":{"OBJECTID":350167,"PRIMENAME":"Ocean Avenue","ELEVTYP_F":0,"ELEVTYP_T":0},"geometry":{"type":"LineString","coordinates":[[-73.9979305029588,40.2376676267047],[-73.9978701300402,40.2378830034444],[-73.9978113047432,40.2381020102434],[-73.9978000669878,40.2381530788483]]}},{"type":"Feature","id":352956,"properties":{"OBJECTID":352956,"PRIMENAME":"Ocean Avenue","ELEVTYP_F":0,"ELEVTYP_T":0},"geometry":{"type":"LineString","coordinates":[[-73.9978000669878,40.2381530788483],[-73.9977794276806,40.2382468748367],[-73.997755977888,40.2384390222855],[-73.9977326742891,40.238621068475],[-73.9977281136335,40.238661238251]]}},{"type":"Feature","id":357649,"properties":{"OBJECTID":357649,"PRIMENAME":"Ocean Avenue","ELEVTYP_F":0,"ELEVTYP_T":0},"geometry":{"type":"LineString","coordinates":[[-73.9977281136335,40.238661238251],[-73.9976689162,40.2387391331157],[-73.9974287128464,40.2396504930247]]}},{"type":"Feature","id":357661,"properties":{"OBJECTID":357661,"PRIMENAME":"Ocean Avenue","ELEVTYP_F":0,"ELEVTYP_T":0},"geometry":{"type":"LineString","coordinates":[[-73.9974287128464,40.2396504930247],[-73.997152550336,40.2406469099375]]}},{"type":"Feature","id":374592,"properties":{"OBJECTID":374592,"PRIMENAME":"Unnamed Segment","ELEVTYP_F":0,"ELEVTYP_T":0},"geometry":{"type":"LineString","coordinates":[[-73.9975118865448,40.239664534401],[-73.9976149516368,40.2392957038651],[-73.9977079251994,40.2389597406909],[-73.9977491592668,40.2387558311792],[-73.9977281136335,40.238661238251]]}},{"type":"Feature","id":376581,"properties":{"OBJECTID":376581,"PRIMENAME":"Sydney Avenue","ELEVTYP_F":0,"ELEVTYP_T":0},"geometry":{"type":"LineString","coordinates":[[-73.9974287128464,40.2396504930247],[-73.9975118865448,40.239664534401]]}},{"type":"Feature","id":377027,"properties":{"OBJECTID":377027,"PRIMENAME":"Unnamed Segment","ELEVTYP_F":0,"ELEVTYP_T":0},"geometry":{"type":"LineString","coordinates":[[-73.9972315941798,40.2406598212477],[-73.9975118865448,40.239664534401]]}},{"type":"Feature","id":377972,"properties":{"OBJECTID":377972,"PRIMENAME":"Sydney Avenue","ELEVTYP_F":0,"ELEVTYP_T":0},"geometry":{"type":"LineString","coordinates":[[-73.9975118865448,40.239664534401],[-73.9980353203104,40.2397528699465],[-73.9990416009922,40.2399192266627],[-73.9994328884218,40.2399877113478],[-74.0007373262595,40.2402030274175],[-74.0008679835376,40.2402208036259]]}},{"type":"Feature","id":383255,"properties":{"OBJECTID":383255,"PRIMENAME":"Sydney Avenue","ELEVTYP_F":0,"ELEVTYP_T":0},"geometry":{"type":"LineString","coordinates":[[-73.9950317323968,40.2392539516803],[-73.9951779946148,40.2392781169713],[-73.9973396219895,40.2396354567718],[-73.9974287128464,40.2396504930247]]}},{"type":"Feature","id":396437,"properties":{"OBJECTID":396437,"PRIMENAME":"Ocean Avenue","ELEVTYP_F":0,"ELEVTYP_T":0},"geometry":{"type":"LineString","coordinates":[[-73.9981896478719,40.2367390196068],[-73.9981051866134,40.2370441993823],[-73.9979305029588,40.2376676267047]]}},{"type":"Feature","id":397490,"properties":{"OBJECTID":397490,"PRIMENAME":"Ocean Avenue","ELEVTYP_F":0,"ELEVTYP_T":0},"geometry":{"type":"LineString","coordinates":[[-73.9983779470057,40.2358716545553],[-73.9983949755713,40.2359425550537],[-73.9983945775412,40.2359964970102],[-73.9982860699665,40.2363906550601],[-73.9981896478719,40.2367390196068]]}}]}
